[{"OBJECT_NAME":"STARLINK-32642","OBJECT_ID":"2024-229V","EPOCH":"2026-03-09T13:21:28.450656","MEAN_MOTION":15.27582698,"ECCENTRICITY":0.00016186,"INCLINATION":42.9996,"RA_OF_ASC_NODE":271.2385,"ARG_OF_PERICENTER":234.8632,"MEAN_ANOMALY":125.2068,"EPHEMERIS_TYPE":0,"CLASSIFICATION_TYPE":"U","NORAD_CAT_ID":62211,"ELEMENT_SET_NO":999,"REV_AT_EPOCH":7054,"BSTAR":0.0010623194,"MEAN_MOTION_DOT":0.00029089,"MEAN_MOTION_DDOT":0},{"OBJECT_NAME":"KUIPER-00209","OBJECT_ID":"2026-030N","EPOCH":"2026-03-09T14:49:43.575744","MEAN_MOTION":15.3016195,"ECCENTRICITY":0.0012191,"INCLINATION":51.8838,"RA_OF_ASC_NODE":220.0775,"ARG_OF_PERICENTER":59.1967,"MEAN_ANOMALY":301.0215,"EPHEMERIS_TYPE":0,"CLASSIFICATION_TYPE":"U","NORAD_CAT_ID":67776,"ELEMENT_SET_NO":999,"REV_AT_EPOCH":507,"BSTAR":0.0011963,"MEAN_MOTION_DOT":0.00035298,"MEAN_MOTION_DDOT":0}]
