STARLINK-32642          
1 62211U 24229V   26068.55657929  .00029089  00000+0  10623-2 0  9992
2 62211  42.9996 271.2385 0001618 234.8632 125.2068 15.27582698 70548
KUIPER-00209            
1 67776U 26030N   26068.61786546  .00035298  00000+0  11963-2 0  9997
2 67776  51.8838 220.0775 0012191  59.1967 301.0215 15.30161950  5077
